start=new Date('2021-10-20T00:00:00.000Z').valueOf();
sats=[{"OBJECT_TYPE":"PAYLOAD","EPOCH":"2021-10-19T13:22:50.341440","OBJECT_ID":"2020-074AW","COUNTRY_CODE":"US","MEAN_MOTION_DDOT":"0.0000000000000","MEAN_ANOMALY":"281.3415","REF_FRAME":"TEME","TLE_LINE2":"2 46783  53.0565 303.8642 0001205  78.7710 281.3415 15.06400148 55337","DECAY_DATE":null,"BSTAR":"0.00004072300000","ECCENTRICITY":"0.00012050","ELEMENT_SET_NO":"999","ARG_OF_PERICENTER":"78.7710","CENTER_NAME":"EARTH","REV_AT_EPOCH":"5533","PERIAPSIS":"546.379","GP_ID":"187630342","NORAD_CAT_ID":"46783","LAUNCH_DATE":"2020-10-24","EPHEMERIS_TYPE":"0","MEAN_MOTION":"15.06400148","FILE":"3172644","INCLINATION":"53.0565","TLE_LINE1":"1 46783U 20074AW  21292.55752710  .00000325  00000-0  40723-4 0  9999","PERIOD":"95.592","RCS_SIZE":"LARGE","MEAN_MOTION_DOT":"0.00000325","SEMIMAJOR_AXIS":"6925.348","TIME_SYSTEM":"UTC","OBJECT_NAME":"STARLINK-1851","APOAPSIS":"548.048","SITE":"AFETR","RA_OF_ASC_NODE":"303.8642","CLASSIFICATION_TYPE":"U","MEAN_ELEMENT_THEORY":"SGP4"},{"PERIAPSIS":"546.187","REV_AT_EPOCH":"5530","CENTER_NAME":"EARTH","ARG_OF_PERICENTER":"78.2209","ELEMENT_SET_NO":"999","BSTAR":"0.00029212000000","ECCENTRICITY":"0.00014170","DECAY_DATE":null,"TLE_LINE2":"2 46784  53.0534 304.7350 0001417  78.2209 281.8938 15.06414858 55308","REF_FRAME":"TEME","MEAN_MOTION_DDOT":"0.0000000000000","MEAN_ANOMALY":"281.8938","COUNTRY_CODE":"US","OBJECT_ID":"2020-074AX","EPOCH":"2021-10-19T08:41:31.246080","OBJECT_TYPE":"PAYLOAD","MEAN_ELEMENT_THEORY":"SGP4","RA_OF_ASC_NODE":"304.7350","CLASSIFICATION_TYPE":"U","SITE":"AFETR","APOAPSIS":"548.149","OBJECT_NAME":"STARLINK-1882","TIME_SYSTEM":"UTC","SEMIMAJOR_AXIS":"6925.303","RCS_SIZE":"LARGE","MEAN_MOTION_DOT":"0.00004074","PERIOD":"95.591","TLE_LINE1":"1 46784U 20074AX  21292.36216720  .00004074  00000-0  29212-3 0  9999","INCLINATION":"53.0534","MEAN_MOTION":"15.06414858","FILE":"3171120","EPHEMERIS_TYPE":"0","LAUNCH_DATE":"2020-10-24","GP_ID":"187571047","NORAD_CAT_ID":"46784"},{"INCLINATION":"53.0561","FILE":"3171120","MEAN_MOTION":"15.06406452","TLE_LINE1":"1 46785U 20074AY  21292.41375328 -.00000097  00000-0  12465-4 0  9991","NORAD_CAT_ID":"46785","GP_ID":"187571297","EPHEMERIS_TYPE":"0","LAUNCH_DATE":"2020-10-24","APOAPSIS":"550.172","MEAN_ELEMENT_THEORY":"SGP4","RA_OF_ASC_NODE":"304.5227","CLASSIFICATION_TYPE":"U","SITE":"AFETR","SEMIMAJOR_AXIS":"6925.329","MEAN_MOTION_DOT":"-0.00000097","RCS_SIZE":"LARGE","PERIOD":"95.592","OBJECT_NAME":"STARLINK-1883","TIME_SYSTEM":"UTC","MEAN_MOTION_DDOT":"0.0000000000000","MEAN_ANOMALY":"141.7795","REF_FRAME":"TEME","EPOCH":"2021-10-19T09:55:48.283392","OBJECT_TYPE":"PAYLOAD","COUNTRY_CODE":"US","OBJECT_ID":"2020-074AY","REV_AT_EPOCH":"5531","CENTER_NAME":"EARTH","PERIAPSIS":"544.215","ELEMENT_SET_NO":"999","BSTAR":"0.00001246500000","ECCENTRICITY":"0.00043010","DECAY_DATE":null,"TLE_LINE2":"2 46785  53.0561 304.5227 0004301 218.2889 141.7795 15.06406452 55312","ARG_OF_PERICENTER":"218.2889"},{"COUNTRY_CODE":"US","OBJECT_ID":"2020-074AZ","EPOCH":"2021-10-19T11:02:10.462848","OBJECT_TYPE":"PAYLOAD","REF_FRAME":"TEME","MEAN_ANOMALY":"343.3340","MEAN_MOTION_DDOT":"0.0000000000000","ARG_OF_PERICENTER":"16.7849","ECCENTRICITY":"0.00060700","BSTAR":"-0.00000734620000","ELEMENT_SET_NO":"999","TLE_LINE2":"2 46786  53.0528 284.3002 0006070  16.7849 343.3340 15.06400426 55281","DECAY_DATE":null,"PERIAPSIS":"543.009","REV_AT_EPOCH":"5528","CENTER_NAME":"EARTH","LAUNCH_DATE":"2020-10-24","EPHEMERIS_TYPE":"0","NORAD_CAT_ID":"46786","GP_ID":"187597739","TLE_LINE1":"1 46786U 20074AZ  21292.45984332 -.00000393  00000-0 -73462-5 0  9992","FILE":"3172111","MEAN_MOTION":"15.06400426","INCLINATION":"53.0528","OBJECT_NAME":"STARLINK-1893","TIME_SYSTEM":"UTC","RCS_SIZE":"LARGE","MEAN_MOTION_DOT":"-0.00000393","SEMIMAJOR_AXIS":"6925.347","PERIOD":"95.592","MEAN_ELEMENT_THEORY":"SGP4","SITE":"AFETR","CLASSIFICATION_TYPE":"U","RA_OF_ASC_NODE":"284.3002","APOAPSIS":"551.416"},{"BSTAR":"0.00030325000000","ECCENTRICITY":"0.00056330","ELEMENT_SET_NO":"999","TLE_LINE2":"2 46787  53.0508 283.1461 0005633 337.3184  22.7555 15.06414783 55641","DECAY_DATE":null,"ARG_OF_PERICENTER":"337.3184","REV_AT_EPOCH":"5564","CENTER_NAME":"EARTH","PERIAPSIS":"543.267","EPOCH":"2021-10-19T17:13:43.201632","OBJECT_TYPE":"PAYLOAD","COUNTRY_CODE":"US","OBJECT_ID":"2020-074BA","MEAN_ANOMALY":"22.7555","MEAN_MOTION_DDOT":"0.0000000000000","REF_FRAME":"TEME","RCS_SIZE":"LARGE","MEAN_MOTION_DOT":"0.00004240","SEMIMAJOR_AXIS":"6925.303","PERIOD":"95.591","OBJECT_NAME":"STARLINK-1899","TIME_SYSTEM":"UTC","APOAPSIS":"551.069","MEAN_ELEMENT_THEORY":"SGP4","SITE":"AFETR","RA_OF_ASC_NODE":"283.1461","CLASSIFICATION_TYPE":"U","NORAD_CAT_ID":"46787","GP_ID":"187629843","LAUNCH_DATE":"2020-10-24","EPHEMERIS_TYPE":"0","MEAN_MOTION":"15.06414783","FILE":"3172644","INCLINATION":"53.0508","TLE_LINE1":"1 46787U 20074BA  21292.71786113  .00004240  00000-0  30325-3 0  9991"},{"PERIAPSIS":"542.159","CENTER_NAME":"EARTH","REV_AT_EPOCH":"5564","ARG_OF_PERICENTER":"20.7012","DECAY_DATE":null,"TLE_LINE2":"2 46788  53.0566 283.1819 0007257  20.7012 339.4270 15.06409542 55649","ELEMENT_SET_NO":"999","BSTAR":"0.00011995000000","ECCENTRICITY":"0.00072570","REF_FRAME":"TEME","MEAN_MOTION_DDOT":"0.0000000000000","MEAN_ANOMALY":"339.4270","OBJECT_ID":"2020-074BB","COUNTRY_CODE":"US","OBJECT_TYPE":"PAYLOAD","EPOCH":"2021-10-19T17:03:06.840576","RA_OF_ASC_NODE":"283.1819","CLASSIFICATION_TYPE":"U","SITE":"AFETR","MEAN_ELEMENT_THEORY":"SGP4","APOAPSIS":"552.210","TIME_SYSTEM":"UTC","OBJECT_NAME":"STARLINK-1929","PERIOD":"95.592","SEMIMAJOR_AXIS":"6925.319","MEAN_MOTION_DOT":"0.00001504","RCS_SIZE":"LARGE","TLE_LINE1":"1 46788U 20074BB  21292.71049584  .00001504  00000-0  11995-3 0  9998","INCLINATION":"53.0566","MEAN_MOTION":"15.06409542","FILE":"3172644","EPHEMERIS_TYPE":"0","LAUNCH_DATE":"2020-10-24","GP_ID":"187630594","NORAD_CAT_ID":"46788"},{"APOAPSIS":"548.137","MEAN_ELEMENT_THEORY":"SGP4","CLASSIFICATION_TYPE":"U","RA_OF_ASC_NODE":"314.6395","SITE":"AFETR","SEMIMAJOR_AXIS":"6925.330","MEAN_MOTION_DOT":"-0.00000091","RCS_SIZE":"LARGE","PERIOD":"95.592","OBJECT_NAME":"STARLINK-1930","TIME_SYSTEM":"UTC","INCLINATION":"53.0542","MEAN_MOTION":"15.06405993","FILE":"3171799","TLE_LINE1":"1 46789U 20074BC  21292.38610905 -.00000091  00000-0  12805-4 0  9996","NORAD_CAT_ID":"46789","GP_ID":"187589994","EPHEMERIS_TYPE":"0","LAUNCH_DATE":"2020-10-24","REV_AT_EPOCH":"5484","CENTER_NAME":"EARTH","PERIAPSIS":"546.253","ELEMENT_SET_NO":"999","ECCENTRICITY":"0.00013600","BSTAR":"0.00001280500000","DECAY_DATE":null,"TLE_LINE2":"2 46789  53.0542 314.6395 0001360  78.6923 281.4219 15.06405993 54841","ARG_OF_PERICENTER":"78.6923","MEAN_MOTION_DDOT":"0.0000000000000","MEAN_ANOMALY":"281.4219","REF_FRAME":"TEME","EPOCH":"2021-10-19T09:15:59.821920","OBJECT_TYPE":"PAYLOAD","COUNTRY_CODE":"US","OBJECT_ID":"2020-074BC"},{"NORAD_CAT_ID":"46790","GP_ID":"187572049","LAUNCH_DATE":"2020-10-24","EPHEMERIS_TYPE":"0","FILE":"3171120","MEAN_MOTION":"15.06395710","INCLINATION":"53.0555","TLE_LINE1":"1 46790U 20074BD  21292.43127854  .00000111  00000-0  26358-4 0  9990","PERIOD":"95.592","MEAN_MOTION_DOT":"0.00000111","RCS_SIZE":"LARGE","SEMIMAJOR_AXIS":"6925.362","TIME_SYSTEM":"UTC","OBJECT_NAME":"STARLINK-1931","APOAPSIS":"548.153","SITE":"AFETR","RA_OF_ASC_NODE":"314.4279","CLASSIFICATION_TYPE":"U","MEAN_ELEMENT_THEORY":"SGP4","OBJECT_TYPE":"PAYLOAD","EPOCH":"2021-10-19T10:21:02.465856","OBJECT_ID":"2020-074BD","COUNTRY_CODE":"US","MEAN_ANOMALY":"282.7748","MEAN_MOTION_DDOT":"0.0000000000000","REF_FRAME":"TEME","TLE_LINE2":"2 46790  53.0555 314.4279 0001337  77.3390 282.7748 15.06395710 55177","DECAY_DATE":null,"BSTAR":"0.00002635800000","ECCENTRICITY":"0.00013370","ELEMENT_SET_NO":"999","ARG_OF_PERICENTER":"77.3390","CENTER_NAME":"EARTH","REV_AT_EPOCH":"5517","PERIAPSIS":"546.301"},{"PERIOD":"95.592","SEMIMAJOR_AXIS":"6925.346","MEAN_MOTION_DOT":"-0.00000380","RCS_SIZE":"LARGE","TIME_SYSTEM":"UTC","OBJECT_NAME":"STARLINK-1933","APOAPSIS":"548.167","RA_OF_ASC_NODE":"314.6782","CLASSIFICATION_TYPE":"U","SITE":"AFETR","MEAN_ELEMENT_THEORY":"SGP4","NORAD_CAT_ID":"46791","GP_ID":"187590008","EPHEMERIS_TYPE":"0","LAUNCH_DATE":"2020-10-24","INCLINATION":"53.0528","FILE":"3171815","MEAN_MOTION":"15.06400747","TLE_LINE1":"1 46791U 20074BE  21292.37967864 -.00000380  00000-0 -66396-5 0  9994","DECAY_DATE":null,"TLE_LINE2":"2 46791  53.0528 314.6782 0001380  77.1743 282.9400 15.06400747 54844","ELEMENT_SET_NO":"999","BSTAR":"-0.00000663960000","ECCENTRICITY":"0.00013800","ARG_OF_PERICENTER":"77.1743","CENTER_NAME":"EARTH","REV_AT_EPOCH":"5484","PERIAPSIS":"546.256","OBJECT_TYPE":"PAYLOAD","EPOCH":"2021-10-19T09:06:44.234496","OBJECT_ID":"2020-074BE","COUNTRY_CODE":"US","MEAN_MOTION_DDOT":"0.0000000000000","MEAN_ANOMALY":"282.9400","REF_FRAME":"TEME"},{"LAUNCH_DATE":"2020-10-24","EPHEMERIS_TYPE":"0","NORAD_CAT_ID":"46792","GP_ID":"187571048","TLE_LINE1":"1 46792U 20074BF  21292.40640286  .00000185  00000-0  31288-4 0  9997","FILE":"3171120","MEAN_MOTION":"15.06410889","INCLINATION":"53.0539","OBJECT_NAME":"STARLINK-1934","TIME_SYSTEM":"UTC","RCS_SIZE":"LARGE","MEAN_MOTION_DOT":"0.00000185","SEMIMAJOR_AXIS":"6925.315","PERIOD":"95.591","MEAN_ELEMENT_THEORY":"SGP4","SITE":"AFETR","CLASSIFICATION_TYPE":"U","RA_OF_ASC_NODE":"304.5529","APOAPSIS":"548.033","COUNTRY_CODE":"US","OBJECT_ID":"2020-074BF","EPOCH":"2021-10-19T09:45:13.207104","OBJECT_TYPE":"PAYLOAD","REF_FRAME":"TEME","MEAN_MOTION_DDOT":"0.0000000000000","MEAN_ANOMALY":"271.2186","ARG_OF_PERICENTER":"88.8944","BSTAR":"0.00003128800000","ECCENTRICITY":"0.00012320","ELEMENT_SET_NO":"999","TLE_LINE2":"2 46792  53.0539 304.5529 0001232  88.8944 271.2186 15.06410889 55315","DECAY_DATE":null,"PERIAPSIS":"546.327","REV_AT_EPOCH":"5531","CENTER_NAME":"EARTH"}];
